#cP2017 10 10  0  0  0.00000000      96 ORBIT IGS14 HLM  IGS
## 1970 172800.00000000   900.00000000 58036 0.0000000000000
+   32   G01G02G03G04G05G06G07G08G09G10G11G12G13G14G15G16G17
+        G18G19G20G21G22G23G24G25G26G27G28G29G30G31G32  0  0
+          0  0  0  0  0  0  0  0  0  0  0  0  0  0  0  0  0
+          0  0  0  0  0  0  0  0  0  0  0  0  0  0  0  0  0
+          0  0  0  0  0  0  0  0  0  0  0  0  0  0  0  0  0
++         2  2  2  0  2  2  2  2  2  2  2  2  2  2  2  2  2
++         2  2  2  2  2  2  2  2  2  2  2  2  2  2  2  0  0
++         0  0  0  0  0  0  0  0  0  0  0  0  0  0  0  0  0
++         0  0  0  0  0  0  0  0  0  0  0  0  0  0  0  0  0
++         0  0  0  0  0  0  0  0  0  0  0  0  0  0  0  0  0
%c G  cc GPS ccc cccc cccc cccc cccc ccccc ccccc ccccc ccccc
%c cc cc ccc ccc cccc cccc cccc cccc ccccc ccccc ccccc ccccc
%f  1.2500000  1.025000000  0.00000000000  0.000000000000000
%f  0.0000000  0.000000000  0.00000000000  0.000000000000000
%i    0    0    0    0      0      0      0      0         0
%i    0    0    0    0      0      0      0      0         0
/* RAPID ORBIT COMBINATION FROM WEIGHTED AVERAGE OF:        
/* cod emr esa gfz jpl ngs sio usn whu                      
/* REFERENCED TO IGS TIME (IGST) AND TO WEIGHTED MEAN POLE: 
/* PCV:IGS14_1967 OL/AL:FES2004  NONE     Y  ORB:CMB CLK:CMB
*  2017 10 10  7 30  0.00000000
PG01   8277.302910 -19424.760254 -16075.189053     -3.994788  8  8  6 116       
PG02 -21690.016092  14645.304631  -2888.459172    310.026216  6  6  6 100       
PG03  -2745.280813 -16880.539098 -20348.280871    -57.833265  5  6  6 106       
PG04  14227.406009  -5855.964209  21432.287369 999999.999999
PG05 -17700.378379   6895.951007  18547.132380    -26.532775     7  3 103       
PG06 -21886.157040   3363.306029 -14660.776103    403.471675  2  5  7  94       
PG07  -7259.303332 -13540.880094  21843.554290    295.197645  7  8  1 100       
PG08   6800.978120 -21928.384337  13314.997640    -76.476811  5  4  4 104       
PG09  -8127.863872 -24084.430067   7659.527145    455.661264  5 10  4  68       
PG10  24456.429258  10525.338858   -604.761026     85.247546  4  7  6  96       
PG11   7547.793084 -24478.605023  -7803.425353   -720.446099  6  8  5  83       
PG12  -1952.577029  15242.466894 -21854.076570    369.719675  6  7  3 103       
PG13 -12095.234160  16123.443080  17197.692871    -92.575170  7  7  5  92       
PG14  15057.789469   1703.291076 -21541.788740    -85.843687  4  8  3 121       
PG15  -3960.714169  23682.302184  10737.461719   -356.510763  6  8  7 111       
PG16  18003.055256  -4382.806070  19055.464168     36.942155  2  7  3  83       
PG17 -13431.013588 -12104.439474 -19143.704666   -151.887019  5  6  5 109       
PG18  19187.261425  15800.716399  10196.558700    631.086489  6 10  5 109       
PG19 -14884.039313  -2551.673585 -22115.258725   -481.971074  4  5  3  94       
PG20  -1747.725758  16005.856928  20975.019205    489.249438  6  7  5  86       
PG21  11119.226746  11604.942232  21939.204228   -472.423879  7  8  2  86       
PG22   6175.943571 -14643.093974 -21043.168217   -149.899084  8  7  6 105       
PG23  -1454.237415 -26191.464880  -1954.623543   -218.003111  6  9  5  94       
PG24 -10268.906384  20332.364863 -13531.173173    -40.690270  6  4  5 117       
PG25  11414.359801  17565.183652 -16612.646474   -470.204334  6  3  4 111       
PG26  23901.971071   1517.692608  11589.922386   -401.376424  3  6  4  65       
PG27  12649.928677 -11288.212990  20325.119785    335.363730  5  4    105       
PG28 -21957.660389 -14699.821406   3248.216446    652.790421  6  9  7  92       
PG29   3717.066558  25997.433426   4002.438349    552.932826  7 10  4  82       
PG30 -16949.990424  -5980.598076  19608.335695    135.624427  6  5  2  65       
PG31  23133.202303  -5289.633330 -12270.137296    169.822426  6  8  5  67       
PG32  15143.005311   8303.286906 -20167.918177   -511.285346  8  6  3 126       
*  2017 10 10  7 45  0.00000000
PG01   9746.457172 -20312.201473 -13977.905755     -3.996055  7  7  7  89       
PG02 -21474.771113  14044.815100  -5677.958572    310.017875  6  7  6  98       
PG03   -525.602287 -16039.652519 -21186.284754    -57.828991  5  6  6 103       
PG04  14823.179661  -3424.721973  21601.190518 999999.999999
PG05 -19547.244918   6001.002992  16962.298697    -26.531524     6  3  98       
PG06 -20567.723306   2137.689284 -16659.998305    403.473926  2  5  7  96       
PG07  -5266.013362 -14947.675874  21451.842030    295.192881  7  7  2  96       
PG08   7214.135569 -20329.016571  15477.979638    -76.478224  4  4  4 109       
PG09  -7968.445191 -24839.891241   4941.083535    455.666325  5  9  3  73       
PG10  24279.050901  10718.926032   2240.530730     85.255584  4  6  6  99       
PG11   8215.177441 -24891.166521  -5210.009314   -720.447841  6  8  5  94       
PG12  -4187.908937  14172.304679 -22242.937236    369.718735  5  6  3 112       
PG13 -12256.977192  14047.420582  18815.137825    -92.575842  7  7  5  85       
PG14  15163.693094   4201.255348 -21141.246769    -85.844705  4  8  3 115       
PG15  -4559.077396  22370.373675  13060.917017   -356.511076  6  7  7 100       
PG16  19829.560456  -3359.536584  17425.361251     36.942153  2  6  3  73       
PG17 -13503.114580 -14266.500768 -17583.105287   -151.884521  5  7  5 105       
PG18  17942.477814  15647.857268  12547.588687    631.086687  7 10  4 108       
PG19 -14931.562776  -4992.278640 -21636.291953   -481.969220  5  4  4  95       
PG20  -4104.903533  15321.902614  21152.626835    489.250292  5  6  4  70       
PG21   9315.006315  13112.016680  21923.471018   -472.421153  8  8  2 100       
PG22   8482.558753 -13791.350000 -20819.675621   -149.910615  8  7  7  90       
PG23  -1064.313006 -25824.551729  -4767.194544   -218.003442  7  9  5  91       
PG24 -11527.447663  21031.700827 -11213.935208    -40.690750  6  3  6 119       
PG25   9559.409963  16913.258559 -18364.191151   -470.209978  6  3  4 104       
PG26  24915.967208   2162.647120   9089.357690   -401.365706  3  6  5  54       
PG27  13050.386164  -8929.294617  21241.635646    335.367754  5  3    108       
PG28 -21470.633941 -14638.495522   6092.779645    652.793406  7  9  7  57       
PG29   3547.870512  26304.404751   1124.393979    552.928668  7 10  5  86       
PG30 -15104.654435  -7357.836818  20609.623741    135.622304  6  5  1  72       
PG31  21991.571446  -4261.494613 -14513.780860    169.820107  6  7  5  82       
PG32  15343.170437  10539.166604 -18941.652828   -511.289572  8  5  4 116       
*  2017 10 10  8  0  0.00000000
PG01  10977.759521 -21112.665441 -11638.810692     -3.997330  6  7  7 105       
PG02 -21064.001683  13213.816701  -8366.543027    310.009371  6  7  6 115       
PG03   1805.313273 -15291.086289 -21660.480976    -57.824711  6  6  6 121       
PG04  15540.200706  -1034.517894  21392.519966 999999.999999
PG05 -21249.101978   5261.783085  15085.792473    -26.530417  1  7  3  97       
PG06 -19157.887964    705.106865 -18372.347637    403.476142  3  5  6  90       
PG07  -3394.934035 -16418.415981  20695.591115    295.188540  7  7  3  87       
PG08   7757.289079 -18529.263440  17374.287319    -76.479776  4  4  4 110       
PG09  -7785.479360 -25296.199694   2137.502351    455.671452  3  7  3  90       
PG10  23810.429938  10817.902578   5047.580623     85.263627  5  6  5 106       
PG11   8740.145621 -25068.094068  -2528.604682   -720.449665  5  7  5 108       
PG12  -6503.055459  13221.976382 -22255.239752    369.717053  5  4  2  95       
PG13 -12541.552267  11817.151079  20106.134278    -92.575518  7  7  5  94       
PG14  15390.664616   6621.352655 -20368.354702    -85.845408  3  8  3 107       
PG15  -5282.668494  20844.678542  15152.935445   -356.511292  6  6  6 103       
PG16  21523.817784  -2524.543828  15497.082686     36.942308  2  6  3  84       
PG17 -13666.110496 -16223.184217 -15713.105605   -151.883055  6  7  5 104       
PG18  16456.698526  15482.562426  14691.027026    631.087089  7 10  2 113       
PG19 -15107.472111  -7355.535997 -20793.223168   -481.967367  6  4  4 118       
PG20  -6490.720408  14748.004819  20961.270899    489.251242  5  6  5  91       
PG21   7604.426036  14695.928353  21556.076347   -472.418424  8  8  2 104       
PG22  10780.551939 -13058.927684 -20230.341135   -149.922055  8  8  7  98       
PG23   -592.663595 -25166.116399  -7495.072724   -218.003663  7  8  5  99       
PG24 -12551.345024  21605.653671  -8701.869013    -40.691318  7  2  6 106       
PG25   7501.273044  16305.499970 -19805.813313   -470.215663  7  2  5 102       
PG26  25685.458640   2662.630207   6433.231077   -401.354975  3  6  5  88       
PG27  13593.822397  -6515.605069  21789.382627    335.371766  5  3    112       
PG28 -20696.526077 -14474.475755   8834.063098    652.796298  7  9  7  60       
PG29   3352.429167  26295.523900  -1772.992428    552.924476  8 10  4 102       
PG30 -13255.731328  -8883.190151  21257.477547    135.620225  6  5    100       
PG31  20720.301815  -3020.774567 -16511.291003    169.817631  6  7  5  82       
PG32  15627.748217  12606.891122 -17389.322982   -511.293743  8  5  3 110       
EOF
